NORAD_CAT_ID,OBJECT_NAME,OBJECT_TYPE,EPOCH,MEAN_MOTION,ECCENTRICITY,INCLINATION,RA_OF_ASC_NODE,ARG_OF_PERICENTER,MEAN_ANOMALY,BSTAR,MEAN_MOTION_DOT,MEAN_MOTION_DDOT,TLE_LINE0,TLE_LINE1,TLE_LINE2,SEMIMAJOR_AXIS,PERIOD,APOGEE,PERIGEE,DECAYED
55420.0,STARLINK-5604,PAYLOAD,2023-07-04 16:23:50,15.69921796,0.0003828,69.9982,16.726,272.6122,87.4635,1.9401e-06,2e-07,0.0,0 STARLINK-5604,1 55420U 23014AF  23185.68322479  .00000020  00000-0  19401-5 0  9998,2 55420  69.9982  16.7260 0003828 272.6122  87.4635 15.69921796 24370,6737.258,91.724,361.702,356.544,0.0
55420.0,STARLINK-5604,PAYLOAD,2023-07-05 22:58:52,15.69931839,0.0003534,70.0007,13.1469,269.2595,90.8196,6.6145e-06,5.83e-06,0.0,0 STARLINK-5604,1 55420U 23014AF  23186.95755639  .00000583  00000-0  66145-5 0  9998,2 55420  70.0007  13.1469 0003534 269.2595  90.8196 15.69931839 24574,6737.229,91.724,361.475,356.713,0.0
55420.0,STARLINK-5604,PAYLOAD,2023-07-06 11:12:54,15.69921771,0.0003879,69.9999,11.7125,266.0784,93.9969,2.0784e-05,2.287e-05,0.0,0 STARLINK-5604,1 55420U 23014AF  23187.46729555  .00002287  00000-0  20784-4 0  9994,2 55420  69.9999  11.7125 0003879 266.0784  93.9969 15.69921771 24656,6737.258,91.724,361.736,356.509,0.0
55420.0,STARLINK-5604,PAYLOAD,2023-07-07 05:33:56,15.69908255,0.0003145,70.0001,9.5616,269.6753,90.4083,1.8487e-06,1e-07,0.0,0 STARLINK-5604,1 55420U 23014AF  23188.23190681  .00000010  00000-0  18487-5 0  9992,2 55420  70.0001   9.5616 0003145 269.6753  90.4083 15.69908255 24778,6737.296,91.725,361.28,357.043,0.0
55420.0,STARLINK-5604,PAYLOAD,2023-07-07 14:44:26,15.69925281,0.0003716,70.0013,8.4889,265.7103,94.3668,9.3998e-06,9.18e-06,0.0,0 STARLINK-5604,1 55420U 23014AF  23188.61419745  .00000918  00000-0  93998-5 0  9996,2 55420  70.0013   8.4889 0003716 265.7103  94.3668 15.69925281 24838,6737.248,91.724,361.616,356.609,0.0
55420.0,STARLINK-5604,PAYLOAD,2023-07-07 20:51:26,15.69938227,0.0003617,70.0007,7.7721,269.9885,90.0897,3e-05,3.398e-05,0.0,0 STARLINK-5604,1 55420U 23014AF  23188.86905749  .00003398  00000-0  30000-4 0  9996,2 55420  70.0007   7.7721 0003617 269.9885  90.0897 15.69938227 24876,6737.211,91.723,361.513,356.639,0.0
55420.0,STARLINK-5604,PAYLOAD,2023-07-08 10:37:13,15.69922455,0.0003429,70.001,6.1615,272.2163,87.864,7.6235e-06,7.04e-06,0.0,0 STARLINK-5604,1 55420U 23014AF  23189.44251546  .00000704  00000-0  76235-5 0  9999,2 55420  70.0010   6.1615 0003429 272.2163  87.8640 15.69922455 24968,6737.256,91.724,361.431,356.811,0.0
55420.0,STARLINK-5604,PAYLOAD,2023-07-09 12:36:59,15.69940532,0.0003498,70.0006,3.1151,272.7957,87.2838,3.4176e-05,3.901e-05,0.0,0 STARLINK-5604,1 55420U 23014AF  23190.52569133  .00003901  00000-0  34176-4 0  9993,2 55420  70.0006   3.1151 0003498 272.7957  87.2838 15.69940532 25136,6737.204,91.723,361.426,356.712,0.0
55420.0,STARLINK-5604,PAYLOAD,2023-07-09 21:47:31,15.69915124,0.0003177,69.9992,2.038,259.6362,100.4475,-2.8491e-06,-5.55e-06,0.0,0 STARLINK-5604,1 55420U 23014AF  23190.90800797 -.00000555  00000-0 -28491-5 0  9997,2 55420  69.9992   2.0380 0003177 259.6362 100.4475 15.69915124 25197,6737.277,91.725,361.282,357.001,0.0
55420.0,STARLINK-5604,PAYLOAD,2023-07-10 11:33:17,15.69921272,0.0004199,69.9977,0.4252,273.9544,86.1172,1.0185e-05,1.012e-05,0.0,0 STARLINK-5604,1 55420U 23014AF  23191.48145347  .00001012  00000-0  10185-4 0  9991,2 55420  69.9977   0.4252 0004199 273.9544  86.1172 15.69921272 25281,6737.259,91.724,361.953,356.295,0.0
55420.0,STARLINK-5604,PAYLOAD,2023-07-10 20:43:47,15.69927728,0.0003858,69.9993,359.3503,270.4538,89.6216,2.1868e-05,2.418e-05,0.0,0 STARLINK-5604,1 55420U 23014AF  23191.86374908  .00002418  00000-0  21868-4 0  9991,2 55420  69.9993 359.3503 0003858 270.4538  89.6216 15.69927728 25346,6737.241,91.724,361.705,356.507,0.0
55420.0,STARLINK-5604,PAYLOAD,2023-07-11 10:29:34,15.69928912,0.0003751,69.9977,357.7392,273.0021,87.0746,-4.8589e-06,-7.97e-06,0.0,0 STARLINK-5604,1 55420U 23014AF  23192.43720278 -.00000797  00000-0 -48589-5 0  9990,2 55420  69.9977 357.7392 0003751 273.0021  87.0746 15.69928912 25430,6737.237,91.724,361.63,356.575,0.0
55420.0,STARLINK-5604,PAYLOAD,2023-07-12 10:57:36,15.69920187,0.0004013,69.9979,354.8715,270.3483,89.7253,1.0667e-05,1.07e-05,0.0,0 STARLINK-5604,1 55420U 23014AF  23193.45667254  .00001070  00000-0  10667-4 0  9995,2 55420  69.9979 354.8715 0004013 270.3483  89.7253 15.69920187 25598,6737.262,91.724,361.831,356.424,0.0
55420.0,STARLINK-5604,PAYLOAD,2023-07-12 17:04:36,15.69930942,0.0003705,69.9976,354.1544,266.8462,93.231,2.1468e-05,2.37e-05,0.0,0 STARLINK-5604,1 55420U 23014AF  23193.71153172  .00002370  00000-0  21468-4 0  9998,2 55420  69.9976 354.1544 0003705 266.8462  93.2310 15.69930942 25631,6737.232,91.724,361.593,356.6,0.0
55420.0,STARLINK-5604,PAYLOAD,2023-07-13 12:57:23,15.69921384,0.0004043,69.9995,351.827,269.6932,90.3801,9.7818e-06,9.63e-06,0.0,0 STARLINK-5604,1 55420U 23014AF  23194.53985564  .00000963  00000-0  97818-5 0  9996,2 55420  69.9995 351.8270 0004043 269.6932  90.3801 15.69921384 25768,6737.259,91.724,361.848,356.4,0.0
55420.0,STARLINK-5604,PAYLOAD,2023-07-13 20:36:09,15.69914589,0.0003635,69.9988,350.9316,271.1331,88.9448,-4.9885e-06,-8.12e-06,0.0,0 STARLINK-5604,1 55420U 23014AF  23194.85844676 -.00000812  00000-0 -49885-5 0  9995,2 55420  69.9988 350.9316 0003635 271.1331  88.9448 15.69914589 25813,6737.278,91.725,361.592,356.694,0.0
55420.0,STARLINK-5604,PAYLOAD,2023-07-14 10:21:55,15.69926737,0.0004284,69.9972,349.318,271.6204,88.4501,4.6544e-06,3.46e-06,0.0,0 STARLINK-5604,1 55420U 23014AF  23195.43188836  .00000346  00000-0  46544-5 0  9998,2 55420  69.9972 349.3180 0004284 271.6204  88.4501 15.69926737 25905,6737.244,91.724,361.995,356.222,0.0
55420.0,STARLINK-5604,PAYLOAD,2023-07-14 18:00:40,15.69937555,0.0003963,69.9991,348.4221,268.0551,92.0191,2.6865e-05,3.02e-05,0.0,0 STARLINK-5604,1 55420U 23014AF  23195.75046399  .00003020  00000-0  26865-4 0  9995,2 55420  69.9991 348.4221 0003963 268.0551  92.0191 15.69937555 25951,6737.213,91.723,361.748,356.408,0.0
55420.0,STARLINK-5604,PAYLOAD,2023-07-15 03:11:11,15.69917921,0.0003643,69.9998,347.3481,273.4272,86.6507,8.8062e-06,8.46e-06,0.0,0 STARLINK-5604,1 55420U 23014AF  23196.13277683  .00000846  00000-0  88062-5 0  9991,2 55420  69.9998 347.3481 0003643 273.4272  86.6507 15.69917921 26012,6737.269,91.725,361.588,356.679,0.0
55420.0,STARLINK-5604,PAYLOAD,2023-07-16 03:39:13,15.6992129,0.000396,69.9997,344.4817,272.0553,88.019,1.5863e-05,1.695e-05,0.0,0 STARLINK-5604,1 55420U 23014AF  23197.15224286  .00001695  00000-0  15863-4 0  9996,2 55420  69.9997 344.4817 0003960 272.0553  88.0190 15.69921290 26176,6737.259,91.724,361.792,356.456,0.0
55420.0,STARLINK-5604,PAYLOAD,2023-07-16 18:56:44,15.69938729,0.0003766,70.0,342.6899,272.1165,87.9599,5.2072e-05,6.057e-05,0.0,0 STARLINK-5604,1 55420U 23014AF  23197.78940386  .00006057  00000-0  52072-4 0  9991,2 55420  70.0000 342.6899 0003766 272.1165  87.9599 15.69938729 26275,6737.209,91.723,361.612,356.537,0.0
55420.0,STARLINK-5604,PAYLOAD,2023-07-17 16:21:16,15.69933412,0.0003698,70.0008,340.1834,268.7742,91.303,3.601e-05,4.121e-05,0.0,0 STARLINK-5604,1 55420U 23014AF  23198.68143930  .00004121  00000-0  36010-4 0  9995,2 55420  70.0008 340.1834 0003698 268.7742  91.3030 15.69933412 26410,6737.225,91.724,361.581,356.598,0.0
55420.0,STARLINK-5604,PAYLOAD,2023-07-17 19:24:47,15.69919363,0.0003693,70.0004,339.8232,275.3291,84.7483,1.3245e-07,-1.97e-06,0.0,0 STARLINK-5604,1 55420U 23014AF  23198.80887847 -.00000197  00000-0  13245-6 0  9998,2 55420  70.0004 339.8232 0003693 275.3291  84.7483 15.69919363 26430,6737.265,91.724,361.618,356.642,0.0
55420.0,STARLINK-5604,PAYLOAD,2023-07-18 13:45:48,15.69930847,0.0003491,70.0006,337.6743,274.1953,85.8844,2.1399e-05,2.362e-05,0.0,0 STARLINK-5604,1 55420U 23014AF  23199.57347579  .00002362  00000-0  21399-4 0  9998,2 55420  70.0006 337.6743 0003491 274.1953  85.8844 15.69930847 26559,6737.232,91.724,361.449,356.745,0.0
55420.0,STARLINK-5604,PAYLOAD,2023-07-19 09:38:35,15.6992275,0.000349,70.0012,335.3473,267.2287,92.8509,1.5152e-05,1.609e-05,0.0,0 STARLINK-5604,1 55420U 23014AF  23200.40179757  .00001609  00000-0  15152-4 0  9997,2 55420  70.0012 335.3473 0003490 267.2287  92.8509 15.69922750 26687,6737.255,91.724,361.471,356.769,0.0
55420.0,STARLINK-5604,PAYLOAD,2023-07-19 17:17:20,15.6994325,0.0003637,70.0006,334.4494,268.8166,91.2613,8.575e-05,0.00010119,0.0,0 STARLINK-5604,1 55420U 23014AF  23200.72037489  .00010119  00000-0  85750-4 0  9994,2 55420  70.0006 334.4494 0003637 268.8166  91.2613 15.69943250 26732,6737.196,91.723,361.512,356.611,0.0
55420.0,STARLINK-5604,PAYLOAD,2023-07-19 18:49:06,15.69916167,0.0003356,70.0018,334.2724,278.8894,81.1922,1.0087e-06,-9.1e-07,0.0,0 STARLINK-5604,1 55420U 23014AF  23200.78409983 -.00000091  00000-0  10087-5 0  9993,2 55420  70.0018 334.2724 0003356 278.8894  81.1922 15.69916167 26745,6737.274,91.725,361.4,356.878,0.0
55420.0,STARLINK-5604,PAYLOAD,2023-07-20 19:17:07,15.69935648,0.0003403,70.001,331.4027,283.8713,76.2104,7.3694e-05,8.662e-05,0.0,0 STARLINK-5604,1 55420U 23014AF  23201.80356344  .00008662  00000-0  73694-4 0  9992,2 55420  70.0010 331.4027 0003403 283.8713  76.2104 15.69935648 26901,6737.218,91.724,361.376,356.79,0.0
55420.0,STARLINK-5604,PAYLOAD,2023-07-21 07:31:08,15.6993566,0.0003817,70.0007,329.9704,274.5,85.5759,5.4944e-05,6.402e-05,0.0,0 STARLINK-5604,1 55420U 23014AF  23202.31329542  .00006402  00000-0  54944-4 0  9996,2 55420  70.0007 329.9704 0003817 274.5000  85.5759 15.69935660 26987,6737.218,91.724,361.655,356.511,0.0
55420.0,STARLINK-5604,PAYLOAD,2023-07-24 05:51:44,15.69931632,0.0003548,69.9995,321.7303,266.5958,93.4832,5.2357e-05,6.089e-05,0.0,0 STARLINK-5604,1 55420U 23014AF  23205.24426584  .00006089  00000-0  52357-4 0  9992,2 55420  69.9995 321.7303 0003548 266.5958  93.4832 15.69931632 28380,6737.23,91.724,361.485,356.704,0.0
